{"bi":{"region":"Africa","sub-region":"Sub-Saharan Africa","intermediate-region":"Eastern Africa","dial_code":"+257","capital":"Bujumbura","currency":"Franc","area-km2":"27830","gdp":"2676000000","boundingBox":{"sw":[-4.4693155,29.0007401],"ne":[-2.3096796,30.8498462]}},"be":{"region":"Europe","sub-region":"Western Europe","intermediate-region":"","dial_code":"+32","capital":"Brussels","currency":"Euro","area-km2":"30510","gdp":"507400000000","boundingBox":{"sw":[49.4969821,2.3889137],"ne":[51.5516667,6.408097]}},"bj":{"region":"Africa","sub-region":"Sub-Saharan Africa","intermediate-region":"Western Africa","dial_code":"+229","capital":"Porto-Novo","currency":"Franc","area-km2":"112620","gdp":"8359000000","boundingBox":{"sw":[6.0398696,0.776667],"ne":[12.4092447,3.843343]}},"bf":{"region":"Africa","sub-region":"Sub-Saharan Africa","intermediate-region":"Western Africa","dial_code":"+226","capital":"Ouagadougou","currency":"Franc","area-km2":"274200","gdp":"12130000000","boundingBox":{"sw":[9.4104718,-5.5132416],"ne":[15.084,2.4089717]}},"bd":{"region":"Asia","sub-region":"Southern Asia","intermediate-region":"","dial_code":"+880","capital":"Dhaka","currency":"Taka","area-km2":"144000","gdp":"140200000000","boundingBox":{"sw":[20.3756582,88.0075306],"ne":[26.6382534,92.6804979]}},"bg":{"region":"Europe","sub-region":"Eastern Europe","intermediate-region":"","dial_code":"+359","capital":"Sofia","currency":"Lev","area-km2":"110910","gdp":"53700000000","boundingBox":{"sw":[41.2353929,22.3571459],"ne":[44.2167064,28.8875409]}},"bh":{"region":"Asia","sub-region":"Western Asia","intermediate-region":"","dial_code":"+973","capital":"Manama","currency":"Dinar","area-km2":"665","gdp":"28360000000","boundingBox":{"sw":[25.535,50.2697989],"ne":[26.6872444,50.9233693]}},"bs":{"region":"Americas","sub-region":"Latin America and the Caribbean","intermediate-region":"Caribbean","dial_code":"+1242","capital":"Nassau","currency":"Dollar","area-km2":"13940","gdp":"8373000000","boundingBox":{"sw":[20.7059846,-80.7001941],"ne":[27.4734551,-72.4477521]}},"ba":{"region":"Europe","sub-region":"Southern Europe","intermediate-region":"","dial_code":"+387","capital":"Sarajevo","currency":"Marka","area-km2":"51129","gdp":"18870000000","boundingBox":{"sw":[42.5553114,15.7287433],"ne":[45.2764135,19.6237311]}},"bl":{"region":"Americas","sub-region":"Latin America and the Caribbean","intermediate-region":"Caribbean","dial_code":"+590","capital":"Gustavia","currency":"Euro","area-km2":"21","gdp":"","boundingBox":{"sw":[17.670931,-63.06639],"ne":[18.1375569,-62.5844019]}},"by":{"region":"Europe","sub-region":"Eastern Europe","intermediate-region":"","dial_code":"+375","capital":"Minsk","currency":"Ruble","area-km2":"207600","gdp":"69240000000","boundingBox":{"sw":[51.2575982,23.1783344],"ne":[56.17218,32.7627809]}},"bz":{"region":"Americas","sub-region":"Latin America and the Caribbean","intermediate-region":"Central America","dial_code":"+501","capital":"Belmopan","currency":"Dollar","area-km2":"22966","gdp":"1637000000","boundingBox":{"sw":[15.8857286,-89.2262083],"ne":[18.496001,-87.3098494]}},"bm":{"region":"Americas","sub-region":"Northern America","intermediate-region":"","dial_code":"+1441","capital":"Hamilton","currency":"Dollar","area-km2":"53","gdp":"5600000000","boundingBox":{"sw":[32.0469651,-65.1232222],"ne":[32.5913693,-64.4109842]}},"bo":{"region":"Americas","sub-region":"Latin America and the Caribbean","intermediate-region":"South America","dial_code":"+591","capital":"Sucre","currency":"Boliviano","area-km2":"1098580","gdp":"30790000000","boundingBox":{"sw":[-22.8982742,-69.6450073],"ne":[-9.6689438,-57.453]}},"br":{"region":"Americas","sub-region":"Latin America and the Caribbean","intermediate-region":"South America","dial_code":"+55","capital":"Brasilia","currency":"Real","area-km2":"8511965","gdp":"2190000000000","boundingBox":{"sw":[-33.8689056,-73.9830625],"ne":[5.2842873,-28.6341164]}},"bb":{"region":"Americas","sub-region":"Latin America and the Caribbean","intermediate-region":"Caribbean","dial_code":"+1246","capital":"Bridgetown","currency":"Dollar","area-km2":"431","gdp":"4262000000","boundingBox":{"sw":[12.845,-59.8562115],"ne":[13.535,-59.2147175]}},"bn":{"region":"Asia","sub-region":"South-eastern Asia","intermediate-region":"","dial_code":"+673","capital":"Bandar Seri Begawan","currency":"Dollar","area-km2":"5770","gdp":"16560000000","boundingBox":{"sw":[4.002508,114.0758734],"ne":[5.1011857,115.3635623]}},"bt":{"region":"Asia","sub-region":"Southern Asia","intermediate-region":"","dial_code":"+975","capital":"Thimphu","currency":"Ngultrum","area-km2":"47000","gdp":"2133000000","boundingBox":{"sw":[26.702016,88.7464724],"ne":[28.246987,92.1252321]}},"bw":{"region":"Africa","sub-region":"Sub-Saharan Africa","intermediate-region":"Southern Africa","dial_code":"+267","capital":"Gaborone","currency":"Pula","area-km2":"600370","gdp":"15530000000","boundingBox":{"sw":[-26.9059669,19.9986474],"ne":[-17.778137,29.375304]}}}