{"cf":{"region":"Africa","sub-region":"Sub-Saharan Africa","intermediate-region":"Middle Africa","dial_code":"+236","capital":"Bangui","currency":"Franc","area-km2":"622984","gdp":"2050000000","boundingBox":{"sw":[2.2156553,14.4155426],"ne":[11.001389,27.4540764]}},"ca":{"region":"Americas","sub-region":"Northern America","intermediate-region":"","dial_code":"+1","capital":"Ottawa","currency":"Dollar","area-km2":"9984670","gdp":"1825000000000","boundingBox":{"sw":[41.6765556,-141.00275],"ne":[83.3362128,-52.3231981]}},"cc":{"region":"Oceania","sub-region":"Australia and New Zealand","intermediate-region":"","dial_code":"+61","capital":"West Island","currency":"Dollar","area-km2":"14","gdp":"","boundingBox":{"sw":[-12.4055983,96.612524],"ne":[-11.6213132,97.1357343]}},"ch":{"region":"Europe","sub-region":"Western Europe","intermediate-region":"","dial_code":"+41","capital":"Berne","currency":"Franc","area-km2":"41290","gdp":"646200000000","boundingBox":{"sw":[45.817995,5.9559113],"ne":[47.8084648,10.4922941]}},"cl":{"region":"Americas","sub-region":"Latin America and the Caribbean","intermediate-region":"South America","dial_code":"+56","capital":"Santiago","currency":"Peso","area-km2":"756950","gdp":"281700000000","boundingBox":{"sw":[-56.725,-109.6795789],"ne":[-17.4983998,-66.0753474]}},"cn":{"region":"Asia","sub-region":"Eastern Asia","intermediate-region":"","dial_code":"+86","capital":"Beijing","currency":"Yuan Renminbi","area-km2":"9596960","gdp":"9330000000000","boundingBox":{"sw":[8.8383436,73.4997347],"ne":[53.5608154,134.7754563]}},"ci":{"region":"Africa","sub-region":"Sub-Saharan Africa","intermediate-region":"Western Africa","dial_code":"+225","capital":"Yamoussoukro","currency":"Franc","area-km2":"322460","gdp":"28280000000","boundingBox":{"sw":[4.1621205,-8.601725],"ne":[10.740197,-2.493031]}},"cm":{"region":"Africa","sub-region":"Sub-Saharan Africa","intermediate-region":"Middle Africa","dial_code":"+237","capital":"Yaounde","currency":"Franc","area-km2":"475440","gdp":"27880000000","boundingBox":{"sw":[1.6546659,8.3822176],"ne":[13.083333,16.1921476]}},"cd":{"region":"Africa","sub-region":"Sub-Saharan Africa","intermediate-region":"Middle Africa","dial_code":"+243","capital":"Kinshasa","currency":"Franc","area-km2":"2345410","gdp":"18560000000","boundingBox":{"sw":[-13.459035,12.039074],"ne":[5.3920026,31.3056758]}},"cg":{"region":"Africa","sub-region":"Sub-Saharan Africa","intermediate-region":"Middle Africa","dial_code":"+242","capital":"Brazzaville","currency":"Franc","area-km2":"342000","gdp":"14250000000","boundingBox":{"sw":[-5.149089,11.0048205],"ne":[3.713056,18.643611]}},"ck":{"region":"Oceania","sub-region":"Polynesia","intermediate-region":"","dial_code":"+682","capital":"Avarua","currency":"Dollar","area-km2":"240","gdp":"183200000","boundingBox":{"sw":[-22.15807,-166.0856468],"ne":[-8.7168792,-157.1089329]}},"co":{"region":"Americas","sub-region":"Latin America and the Caribbean","intermediate-region":"South America","dial_code":"+57","capital":"Bogota","currency":"Peso","area-km2":"1138910","gdp":"369200000000","boundingBox":{"sw":[-4.2316872,-82.1243666],"ne":[16.0571269,-66.8511907]}},"cv":{"region":"Africa","sub-region":"Sub-Saharan Africa","intermediate-region":"Western Africa","dial_code":"+238","capital":"Praia","currency":"Escudo","area-km2":"4033","gdp":"1955000000","boundingBox":{"sw":[14.8031546,-25.3609478],"ne":[17.2053108,-22.6673416]}},"cr":{"region":"Americas","sub-region":"Latin America and the Caribbean","intermediate-region":"Central America","dial_code":"+506","capital":"San Jose","currency":"Colon","area-km2":"51100","gdp":"48510000000","boundingBox":{"sw":[5.3329698,-87.2722647],"ne":[11.2195684,-82.5060208]}},"cu":{"region":"Americas","sub-region":"Latin America and the Caribbean","intermediate-region":"Caribbean","dial_code":"+53","capital":"Havana","currency":"Peso","area-km2":"110860","gdp":"72300000000","boundingBox":{"sw":[19.6275294,-85.1679702],"ne":[23.4816972,-73.9190004]}},"cx":{"region":"Oceania","sub-region":"Australia and New Zealand","intermediate-region":"","dial_code":"+61","capital":"Flying Fish Cove","currency":"Dollar","area-km2":"135","gdp":"","boundingBox":{"sw":[-10.5698515,105.5336422],"ne":[-10.4123553,105.7130159]}},"cy":{"region":"Asia","sub-region":"Western Asia","intermediate-region":"","dial_code":"+357","capital":"Nicosia","currency":"Euro","area-km2":"9250","gdp":"21780000000","boundingBox":{"sw":[34.4383706,32.0227581],"ne":[35.913252,34.8553182]}},"cz":{"region":"Europe","sub-region":"Eastern Europe","intermediate-region":"","dial_code":"+420","capital":"Prague","currency":"Koruna","area-km2":"78866","gdp":"194800000000","boundingBox":{"sw":[48.5518083,12.0905901],"ne":[51.0557036,18.859216]}}}