{"ga":{"region":"Africa","sub-region":"Sub-Saharan Africa","intermediate-region":"Middle Africa","dial_code":"+241","capital":"Libreville","currency":"Franc","area-km2":"267667","gdp":"19970000000","boundingBox":{"sw":[-4.1012261,8.5002246],"ne":[2.3182171,14.539444]}},"gb":{"region":"Europe","sub-region":"Northern Europe","intermediate-region":"","dial_code":"+44","capital":"London","currency":"Pound","area-km2":"244820","gdp":"2490000000000","boundingBox":{"sw":[49.674,-14.015517],"ne":[61.061,2.0919117]}},"ge":{"region":"Asia","sub-region":"Western Asia","intermediate-region":"","dial_code":"+995","capital":"Tbilisi","currency":"Lari","area-km2":"69700","gdp":"15950000000","boundingBox":{"sw":[41.0552922,39.8844803],"ne":[43.5864294,46.7365373]}},"gg":{"region":"Europe","sub-region":"Northern Europe","intermediate-region":"Channel Islands","dial_code":"+44","capital":"St Peter Port","currency":"Pound","area-km2":"78","gdp":"2742000000","boundingBox":{"sw":[49.4155331,-2.6751703],"ne":[49.5090776,-2.501814]}},"gh":{"region":"Africa","sub-region":"Sub-Saharan Africa","intermediate-region":"Western Africa","dial_code":"+233","capital":"Accra","currency":"Cedi","area-km2":"239460","gdp":"45550000000","boundingBox":{"sw":[4.5392525,-3.260786],"ne":[11.1748562,1.2732942]}},"gi":{"region":"Europe","sub-region":"Southern Europe","intermediate-region":"","dial_code":"+350","capital":"Gibraltar","currency":"Pound","area-km2":"7","gdp":"1106000000","boundingBox":{"sw":[36.100807,-5.3941295],"ne":[36.180807,-5.3141295]}},"gn":{"region":"Africa","sub-region":"Sub-Saharan Africa","intermediate-region":"Western Africa","dial_code":"+224","capital":"Conakry","currency":"Franc","area-km2":"245857","gdp":"6544000000","boundingBox":{"sw":[7.1906045,-15.5680508],"ne":[12.67563,-7.6381993]}},"gm":{"region":"Africa","sub-region":"Sub-Saharan Africa","intermediate-region":"Western Africa","dial_code":"+220","capital":"Banjul","currency":"Dalasi","area-km2":"11300","gdp":"896000000","boundingBox":{"sw":[13.061,-17.0288254],"ne":[13.8253137,-13.797778]}},"gw":{"region":"Africa","sub-region":"Sub-Saharan Africa","intermediate-region":"Western Africa","dial_code":"+245","capital":"Bissau","currency":"Franc","area-km2":"36120","gdp":"880000000","boundingBox":{"sw":[10.6514215,-16.894523],"ne":[12.6862384,-13.6348777]}},"gq":{"region":"Africa","sub-region":"Sub-Saharan Africa","intermediate-region":"Middle Africa","dial_code":"+240","capital":"Malabo","currency":"Franc","area-km2":"28051","gdp":"17080000000","boundingBox":{"sw":[-1.6732196,5.4172943],"ne":[3.989,11.3598628]}},"gr":{"region":"Europe","sub-region":"Southern Europe","intermediate-region":"","dial_code":"+30","capital":"Athens","currency":"Euro","area-km2":"131940","gdp":"243300000000","boundingBox":{"sw":[34.7006096,19.2477876],"ne":[41.7488862,29.7296986]}},"gd":{"region":"Americas","sub-region":"Latin America and the Caribbean","intermediate-region":"Caribbean","dial_code":"+1473","capital":"St. George's","currency":"Dollar","area-km2":"344","gdp":"811000000","boundingBox":{"sw":[11.786,-62.0065868],"ne":[12.5966532,-61.1732143]}},"gl":{"region":"Americas","sub-region":"Northern America","intermediate-region":"","dial_code":"+299","capital":"Nuuk","currency":"Krone","area-km2":"2166086","gdp":"2160000000","boundingBox":{"sw":[59.515387,-74.1250416],"ne":[83.875172,-10.0288759]}},"gt":{"region":"Americas","sub-region":"Latin America and the Caribbean","intermediate-region":"Central America","dial_code":"+502","capital":"Guatemala City","currency":"Quetzal","area-km2":"108890","gdp":"53900000000","boundingBox":{"sw":[13.6345804,-92.3105242],"ne":[17.8165947,-88.1755849]}},"gu":{"region":"Oceania","sub-region":"Micronesia","intermediate-region":"","dial_code":"+1671","capital":"Hagatna","currency":"Dollar","area-km2":"549","gdp":"4600000000","boundingBox":{"sw":[13.182335,144.563426],"ne":[13.706179,145.009167]}},"gy":{"region":"Americas","sub-region":"Latin America and the Caribbean","intermediate-region":"South America","dial_code":"+595","capital":"Georgetown","currency":"Dollar","area-km2":"214970","gdp":"3020000000","boundingBox":{"sw":[1.1710017,-61.414905],"ne":[8.6038842,-56.4689543]}}}