{"pk":{"region":"Asia","sub-region":"Southern Asia","intermediate-region":"","dial_code":"+92","capital":"Islamabad","currency":"Rupee","area-km2":"803940","gdp":"236500000000","boundingBox":{"sw":[23.5393916,60.872855],"ne":[37.084107,77.1203914]}},"pa":{"region":"Americas","sub-region":"Latin America and the Caribbean","intermediate-region":"Central America","dial_code":"+507","capital":"Panama City","currency":"Balboa","area-km2":"78200","gdp":"40620000000","boundingBox":{"sw":[7.0338679,-83.0517245],"ne":[9.8701757,-77.1393779]}},"pn":{"region":"Oceania","sub-region":"Polynesia","intermediate-region":"","dial_code":"+872","capital":"Adamstown","currency":"Dollar","area-km2":"47","gdp":"","boundingBox":{"sw":[-25.1306736,-130.8049862],"ne":[-23.8655769,-124.717534]}},"pe":{"region":"Americas","sub-region":"Latin America and the Caribbean","intermediate-region":"South America","dial_code":"+51","capital":"Lima","currency":"Sol","area-km2":"1285220","gdp":"210300000000","boundingBox":{"sw":[-20.1984472,-84.6356535],"ne":[-0.0392818,-68.6519906]}},"ph":{"region":"Asia","sub-region":"South-eastern Asia","intermediate-region":"","dial_code":"+63","capital":"Manila","currency":"Peso","area-km2":"300000","gdp":"272200000000","boundingBox":{"sw":[4.2158064,114.0952145],"ne":[21.3217806,126.8072562]}},"pw":{"region":"Oceania","sub-region":"Micronesia","intermediate-region":"","dial_code":"+680","capital":"Melekeok","currency":"Dollar","area-km2":"458","gdp":"221000000","boundingBox":{"sw":[2.748,131.0685462],"ne":[8.222,134.7714735]}},"pg":{"region":"Oceania","sub-region":"Melanesia","intermediate-region":"","dial_code":"+675","capital":"Port Moresby","currency":"Kina","area-km2":"462840","gdp":"16100000000","boundingBox":{"sw":[-13.1816069,136.7489081],"ne":[1.8183931,151.7489081]}},"pl":{"region":"Europe","sub-region":"Eastern Europe","intermediate-region":"","dial_code":"+48","capital":"Warsaw","currency":"Zloty","area-km2":"312685","gdp":"513900000000","boundingBox":{"sw":[49.0020468,14.1229707],"ne":[55.0336963,24.145783]}},"pr":{"region":"Americas","sub-region":"Latin America and the Caribbean","intermediate-region":"Caribbean","dial_code":"+1939","capital":"San Juan","currency":"Dollar","area-km2":"9104","gdp":"93520000000","boundingBox":{"sw":[17.9268695,-67.271492],"ne":[18.5159789,-65.5897525]}},"pt":{"region":"Europe","sub-region":"Southern Europe","intermediate-region":"","dial_code":"+351","capital":"Lisbon","currency":"Euro","area-km2":"92391","gdp":"219300000000","boundingBox":{"sw":[29.8288021,-31.5575303],"ne":[42.1543112,-6.1891593]}},"py":{"region":"Americas","sub-region":"Latin America and the Caribbean","intermediate-region":"South America","dial_code":"+595","capital":"Asuncion","currency":"Guarani","area-km2":"406750","gdp":"30560000000","boundingBox":{"sw":[-27.6063935,-62.6442036],"ne":[-19.2876472,-54.258]}},"ps":{"region":"Asia","sub-region":"Western Asia","intermediate-region":"","dial_code":"+970","capital":"East Jerusalem","currency":"Shekel","area-km2":"5970","gdp":"6641000000","boundingBox":{"sw":[31.2201289,34.0689732],"ne":[32.5521479,35.5739235]}},"pf":{"region":"Oceania","sub-region":"Polynesia","intermediate-region":"","dial_code":"+689","capital":"Papeete","currency":"Franc","area-km2":"4167","gdp":"5650000000","boundingBox":{"sw":[-28.0990232,-154.9360599],"ne":[-7.6592173,-134.244799]}},"pm":{"region":"Americas","sub-region":"Northern America","intermediate-region":"","dial_code":"+508","capital":"Saint-Pierre","currency":"Euro","area-km2":"242","gdp":"215300000","boundingBox":{"sw":[46.5507173,-56.6972961],"ne":[47.365,-55.9033333]}}}