{"tc":{"region":"Americas","sub-region":"Latin America and the Caribbean","intermediate-region":"Caribbean","dial_code":"+1649","capital":"Cockburn Town","currency":"Dollar","area-km2":"430","gdp":"","boundingBox":{"sw":[20.9553418,-72.6799046],"ne":[22.1630989,-70.8643591]}},"td":{"region":"Africa","sub-region":"Sub-Saharan Africa","intermediate-region":"Middle Africa","dial_code":"+235","capital":"N'Djamena","currency":"Franc","area-km2":"1284000","gdp":"13590000000","boundingBox":{"sw":[7.44107,13.47348],"ne":[23.4975,24]}},"tg":{"region":"Africa","sub-region":"Sub-Saharan Africa","intermediate-region":"Western Africa","dial_code":"+228","capital":"Lome","currency":"Franc","area-km2":"56785","gdp":"4299000000","boundingBox":{"sw":[5.926547,-0.1439746],"ne":[11.1395102,1.8087605]}},"th":{"region":"Asia","sub-region":"South-eastern Asia","intermediate-region":"","dial_code":"+66","capital":"Bangkok","currency":"Baht","area-km2":"514000","gdp":"400900000000","boundingBox":{"sw":[5.612851,97.3438072],"ne":[20.4648337,105.636812]}},"tj":{"region":"Asia","sub-region":"Central Asia","intermediate-region":"","dial_code":"+992","capital":"Dushanbe","currency":"Somoni","area-km2":"143100","gdp":"8513000000","boundingBox":{"sw":[36.6711153,67.3332775],"ne":[41.0450935,75.1539563]}},"tk":{"region":"Oceania","sub-region":"Polynesia","intermediate-region":"","dial_code":"+690","capital":"","currency":"Dollar","area-km2":"10","gdp":"","boundingBox":{"sw":[-9.6442499,-172.7213673],"ne":[-8.3328631,-170.9797586]}},"tm":{"region":"Asia","sub-region":"Central Asia","intermediate-region":"","dial_code":"+993","capital":"Ashgabat","currency":"Manat","area-km2":"488100","gdp":"40560000000","boundingBox":{"sw":[35.129093,52.335076],"ne":[42.7975571,66.6895177]}},"tl":{"region":"Asia","sub-region":"South-eastern Asia","intermediate-region":"","dial_code":"+670","capital":"Dili","currency":"Dollar","area-km2":"15007","gdp":"6129000000","boundingBox":{"sw":[-9.5642775,124.0415703],"ne":[-8.0895459,127.5335392]}},"to":{"region":"Oceania","sub-region":"Polynesia","intermediate-region":"","dial_code":"+676","capital":"Nuku'alofa","currency":"Pa'anga","area-km2":"748","gdp":"477000000","boundingBox":{"sw":[-24.1034499,-179.3866055],"ne":[-15.3655722,-173.5295458]}},"tt":{"region":"Americas","sub-region":"Latin America and the Caribbean","intermediate-region":"Caribbean","dial_code":"+1868","capital":"Port of Spain","currency":"Dollar","area-km2":"5128","gdp":"27130000000","boundingBox":{"sw":[9.8732106,-62.083056],"ne":[11.5628372,-60.2895848]}},"tn":{"region":"Africa","sub-region":"Northern Africa","intermediate-region":"","dial_code":"+216","capital":"Tunis","currency":"Dinar","area-km2":"163610","gdp":"48380000000","boundingBox":{"sw":[30.230236,7.5219807],"ne":[37.7612052,11.8801133]}},"tr":{"region":"Asia","sub-region":"Western Asia","intermediate-region":"","dial_code":"+90","capital":"Ankara","currency":"Lira","area-km2":"780580","gdp":"821800000000","boundingBox":{"sw":[35.8076804,25.6212891],"ne":[42.297,44.8176638]}},"tv":{"region":"Oceania","sub-region":"Polynesia","intermediate-region":"","dial_code":"+688","capital":"Funafuti","currency":"Dollar","area-km2":"26","gdp":"38000000","boundingBox":{"sw":[-9.9939389,175.1590468],"ne":[-5.4369611,178.7344938]}},"tw":{"region":"Asia","sub-region":"Eastern Asia","intermediate-region":"","dial_code":"+886","capital":"Taipei","currency":"Dollar","area-km2":"35980","gdp":"484700000000","boundingBox":{"sw":[10.374269,114.3599058],"ne":[26.4372222,122.297]}},"tz":{"region":"Africa","sub-region":"Sub-Saharan Africa","intermediate-region":"Eastern Africa","dial_code":"+255","capital":"Dodoma","currency":"Shilling","area-km2":"945087","gdp":"31940000000","boundingBox":{"sw":[-11.761254,29.3269773],"ne":[-0.9854812,40.6584071]}}}