{"id":{"region":"Asia","sub-region":"South-eastern Asia","intermediate-region":"","dial_code":"+62","capital":"Jakarta","currency":"Rupiah","area-km2":"1919440","gdp":"867500000000","boundingBox":{"sw":[-11.2085669,94.7717124],"ne":[6.2744496,141.0194444]}},"im":{"region":"Europe","sub-region":"Northern Europe","intermediate-region":"","dial_code":"+44","capital":"Douglas, Isle of Man","currency":"Pound","area-km2":"572","gdp":"4076000000","boundingBox":{"sw":[54.0539576,-4.7946845],"ne":[54.4178705,-4.3076853]}},"in":{"region":"Asia","sub-region":"Southern Asia","intermediate-region":"","dial_code":"+91","capital":"New Delhi","currency":"Rupee","area-km2":"3287590","gdp":"1670000000000","boundingBox":{"sw":[6.5546079,68.1113787],"ne":[35.6745457,97.395561]}},"io":{"region":"Africa","sub-region":"Sub-Saharan Africa","intermediate-region":"Eastern Africa","dial_code":"+246","capital":"Diego Garcia","currency":"Dollar","area-km2":"60","gdp":"","boundingBox":{"sw":[-7.6454079,71.036504],"ne":[-5.037066,72.7020157]}},"ie":{"region":"Europe","sub-region":"Northern Europe","intermediate-region":"","dial_code":"+353","capital":"Dublin","currency":"Euro","area-km2":"70280","gdp":"220900000000","boundingBox":{"sw":[51.222,-11.0133788],"ne":[55.636,-5.6582363]}},"ir":{"region":"Asia","sub-region":"Southern Asia","intermediate-region":"","dial_code":"+98","capital":"Tehran","currency":"Rial","area-km2":"1648000","gdp":"411900000000","boundingBox":{"sw":[24.8465103,44.0318908],"ne":[39.7816502,63.3332704]}},"iq":{"region":"Asia","sub-region":"Western Asia","intermediate-region":"","dial_code":"+964","capital":"Baghdad","currency":"Dinar","area-km2":"437072","gdp":"221800000000","boundingBox":{"sw":[29.0585661,38.7936719],"ne":[37.380932,48.8412702]}},"is":{"region":"Europe","sub-region":"Northern Europe","intermediate-region":"","dial_code":"+354","capital":"Reykjavik","currency":"Krona","area-km2":"103000","gdp":"14590000000","boundingBox":{"sw":[63.0859177,-25.0135069],"ne":[67.353,-12.8046162]}},"il":{"region":"Asia","sub-region":"Western Asia","intermediate-region":"","dial_code":"+972","capital":"Jerusalem","currency":"Shekel","area-km2":"20770","gdp":"272700000000","boundingBox":{"sw":[29.4533796,34.2674994],"ne":[33.3356317,35.8950234]}},"it":{"region":"Europe","sub-region":"Southern Europe","intermediate-region":"","dial_code":"+39","capital":"Rome","currency":"Euro","area-km2":"301230","gdp":"2068000000000","boundingBox":{"sw":[35.2889616,6.6272658],"ne":[47.0921462,18.7844746]}}}