{"km":{"region":"Africa","sub-region":"Sub-Saharan Africa","intermediate-region":"Eastern Africa","dial_code":"+269","capital":"Moroni","currency":"Franc","area-km2":"2170","gdp":"658000000","boundingBox":{"sw":[-12.621,43.025305],"ne":[-11.165,44.7451922]}},"ky":{"region":"Americas","sub-region":"Latin America and the Caribbean","intermediate-region":"Caribbean","dial_code":"+ 345","capital":"George Town","currency":"Dollar","area-km2":"262","gdp":"2250000000","boundingBox":{"sw":[19.0620619,-81.6313748],"ne":[19.9573759,-79.5110954]}},"kz":{"region":"Asia","sub-region":"Central Asia","intermediate-region":"","dial_code":"+77","capital":"Astana","currency":"Tenge","area-km2":"2717300","gdp":"224900000000","boundingBox":{"sw":[40.5686476,46.4932179],"ne":[55.4421701,87.3156316]}},"ke":{"region":"Africa","sub-region":"Sub-Saharan Africa","intermediate-region":"Eastern Africa","dial_code":"+254","capital":"Nairobi","currency":"Shilling","area-km2":"582650","gdp":"45310000000","boundingBox":{"sw":[-4.8995204,33.9098987],"ne":[4.62,41.899578]}},"kg":{"region":"Asia","sub-region":"Central Asia","intermediate-region":"","dial_code":"+996","capital":"Bishkek","currency":"Som","area-km2":"198500","gdp":"7234000000","boundingBox":{"sw":[39.1728437,69.2649523],"ne":[43.2667971,80.2295793]}},"kh":{"region":"Asia","sub-region":"South-eastern Asia","intermediate-region":"","dial_code":"+855","capital":"Phnom Penh","currency":"Riels","area-km2":"181040","gdp":"15640000000","boundingBox":{"sw":[9.4752639,102.3338282],"ne":[14.6904224,107.6276788]}},"ki":{"region":"Oceania","sub-region":"Micronesia","intermediate-region":"","dial_code":"+686","capital":"Tarawa","currency":"Dollar","area-km2":"811","gdp":"173000000","boundingBox":{"sw":[-7.0516717,-179.1645388],"ne":[7.9483283,-164.1645388]}},"kn":{"region":"Americas","sub-region":"Latin America and the Caribbean","intermediate-region":"Caribbean","dial_code":"+1869","capital":"Basseterre","currency":"Dollar","area-km2":"261","gdp":"767000000","boundingBox":{"sw":[16.895,-63.051129],"ne":[17.6158146,-62.3303519]}},"kr":{"region":"Asia","sub-region":"Eastern Asia","intermediate-region":"","dial_code":"+82","capital":"Seoul","currency":"Won","area-km2":"98480","gdp":"1198000000000","boundingBox":{"sw":[32.9104556,124.354847],"ne":[38.623477,132.1467806]}},"kw":{"region":"Asia","sub-region":"Western Asia","intermediate-region":"","dial_code":"+965","capital":"Kuwait City","currency":"Dinar","area-km2":"17820","gdp":"179500000000","boundingBox":{"sw":[28.5243622,46.5526837],"ne":[30.1038082,49.0046809]}},"kp":{"region":"Asia","sub-region":"Eastern Asia","intermediate-region":"","dial_code":"+850","capital":"Pyongyang","currency":"Won","area-km2":"120540","gdp":"28000000000","boundingBox":{"sw":[37.5867855,124.0913902],"ne":[43.0089642,130.924647]}}}