{"la":{"region":"Asia","sub-region":"South-eastern Asia","intermediate-region":"","dial_code":"+856","capital":"Vientiane","currency":"Kip","area-km2":"236800","gdp":"10100000000","boundingBox":{"sw":[13.9096752,100.0843247],"ne":[22.5086717,107.6349989]}},"lb":{"region":"Asia","sub-region":"Western Asia","intermediate-region":"","dial_code":"+961","capital":"Beirut","currency":"Pound","area-km2":"10400","gdp":"43490000000","boundingBox":{"sw":[33.0479858,34.8825667],"ne":[34.6923543,36.625]}},"lr":{"region":"Africa","sub-region":"Sub-Saharan Africa","intermediate-region":"Western Africa","dial_code":"+231","capital":"Monrovia","currency":"Dollar","area-km2":"111370","gdp":"1977000000","boundingBox":{"sw":[4.1555907,-11.6080764],"ne":[8.5519861,-7.367323]}},"ly":{"region":"Africa","sub-region":"Northern Africa","intermediate-region":"","dial_code":"+218","capital":"Tripolis","currency":"Dinar","area-km2":"1759540","gdp":"70920000000","boundingBox":{"sw":[19.5008138,9.391081],"ne":[33.3545898,25.3770629]}},"lc":{"region":"Americas","sub-region":"Latin America and the Caribbean","intermediate-region":"Caribbean","dial_code":"+1758","capital":"Castries","currency":"Dollar","area-km2":"616","gdp":"1377000000","boundingBox":{"sw":[13.508,-61.2853867],"ne":[14.2725,-60.6669363]}},"li":{"region":"Europe","sub-region":"Western Europe","intermediate-region":"","dial_code":"+423","capital":"Vaduz","currency":"Franc","area-km2":"160","gdp":"5113000000","boundingBox":{"sw":[47.0484291,9.4716736],"ne":[47.270581,9.6357143]}},"lk":{"region":"Asia","sub-region":"Southern Asia","intermediate-region":"","dial_code":"+94","capital":"Colombo","currency":"Rupee","area-km2":"65610","gdp":"65120000000","boundingBox":{"sw":[5.719,79.3959205],"ne":[10.035,82.0810141]}},"ls":{"region":"Africa","sub-region":"Sub-Saharan Africa","intermediate-region":"Southern Africa","dial_code":"+266","capital":"Maseru","currency":"Loti","area-km2":"30355","gdp":"2457000000","boundingBox":{"sw":[-30.6772773,27.0114632],"ne":[-28.570615,29.4557099]}},"lt":{"region":"Europe","sub-region":"Northern Europe","intermediate-region":"","dial_code":"+370","capital":"Vilnius","currency":"Euro","area-km2":"65200","gdp":"46710000000","boundingBox":{"sw":[53.8967893,20.653783],"ne":[56.4504213,26.8355198]}},"lu":{"region":"Europe","sub-region":"Western Europe","intermediate-region":"","dial_code":"+352","capital":"Luxembourg","currency":"Euro","area-km2":"2586","gdp":"60540000000","boundingBox":{"sw":[49.4969821,4.9684415],"ne":[50.430377,6.0344254]}},"lv":{"region":"Europe","sub-region":"Northern Europe","intermediate-region":"","dial_code":"+371","capital":"Riga","currency":"Euro","area-km2":"64589","gdp":"30380000000","boundingBox":{"sw":[55.6746505,20.6715407],"ne":[58.0855688,28.2414904]}}}