{"na":{"region":"Africa","sub-region":"Sub-Saharan Africa","intermediate-region":"Southern Africa","dial_code":"+264","capital":"Windhoek","currency":"Dollar","area-km2":"825418","gdp":"12300000000","boundingBox":{"sw":[-28.96945,11.5280384],"ne":[-16.9634855,25.2617671]}},"nc":{"region":"Oceania","sub-region":"Melanesia","intermediate-region":"","dial_code":"+687","capital":"Noumea","currency":"Franc","area-km2":"19060","gdp":"9280000000","boundingBox":{"sw":[-23.2217509,162.6034343],"ne":[-17.6868616,167.8109827]}},"ne":{"region":"Africa","sub-region":"Sub-Saharan Africa","intermediate-region":"Western Africa","dial_code":"+227","capital":"Niamey","currency":"Franc","area-km2":"1267000","gdp":"7304000000","boundingBox":{"sw":[11.693756,0.1689653],"ne":[23.517178,15.996667]}},"ng":{"region":"Africa","sub-region":"Sub-Saharan Africa","intermediate-region":"Western Africa","dial_code":"+234","capital":"Abuja","currency":"Naira","area-km2":"923768","gdp":"502000000000","boundingBox":{"sw":[4.0690959,2.676932],"ne":[13.885645,14.678014]}},"ni":{"region":"Americas","sub-region":"Latin America and the Caribbean","intermediate-region":"Central America","dial_code":"+505","capital":"Managua","currency":"Cordoba","area-km2":"129494","gdp":"11260000000","boundingBox":{"sw":[10.7076565,-87.901532],"ne":[15.0331183,-82.6227023]}},"nu":{"region":"Oceania","sub-region":"Polynesia","intermediate-region":"","dial_code":"+683","capital":"Alofi","currency":"Dollar","area-km2":"260","gdp":"10010000","boundingBox":{"sw":[-19.3548665,-170.1595029],"ne":[-18.7534559,-169.5647229]}},"nl":{"region":"Europe","sub-region":"Western Europe","intermediate-region":"","dial_code":"+31","capital":"Amsterdam","currency":"Euro","area-km2":"41526","gdp":"722300000000","boundingBox":{"sw":[50.7295671,1.9193492],"ne":[53.7253321,7.2274985]}},"no":{"region":"Europe","sub-region":"Northern Europe","intermediate-region":"","dial_code":"+47","capital":"Oslo","currency":"Krone","area-km2":"324220","gdp":"515800000000","boundingBox":{"sw":[57.7590052,4.0875274],"ne":[71.3848787,31.7614911]}},"np":{"region":"Asia","sub-region":"Southern Asia","intermediate-region":"","dial_code":"+977","capital":"Kathmandu","currency":"Rupee","area-km2":"140800","gdp":"19340000000","boundingBox":{"sw":[26.3477581,80.0586226],"ne":[30.446945,88.2015257]}},"nr":{"region":"Oceania","sub-region":"Micronesia","intermediate-region":"","dial_code":"+674","capital":"Yaren","currency":"Dollar","area-km2":"21","gdp":"","boundingBox":{"sw":[-0.5541334,166.9091794],"ne":[-0.5025906,166.9589235]}},"nz":{"region":"Oceania","sub-region":"Australia and New Zealand","intermediate-region":"","dial_code":"+64","capital":"Wellington","currency":"Dollar","area-km2":"268680","gdp":"181100000000","boundingBox":{"sw":[-52.8213687,-179.059153],"ne":[-29.0303303,179.3643594]}}}