{"aw":{"region":"Americas","sub-region":"Latin America and the Caribbean","intermediate-region":"Caribbean","dial_code":"+297","capital":"Oranjestad","currency":"Guilder","area-km2":"193","gdp":"2516000000","boundingBox":{"sw":[12.1702998,-70.2809842],"ne":[12.8102998,-69.6409842]}},"af":{"region":"Asia","sub-region":"Southern Asia","intermediate-region":"","dial_code":"+93","capital":"Kabul","currency":"Afghani","area-km2":"647500","gdp":"20650000000","boundingBox":{"sw":[29.3772,60.5176034],"ne":[38.4910682,74.889862]}},"ao":{"region":"Africa","sub-region":"Sub-Saharan Africa","intermediate-region":"Middle Africa","dial_code":"+244","capital":"Luanda","currency":"Kwanza","area-km2":"1246700","gdp":"124000000000","boundingBox":{"sw":[-18.038945,11.4609793],"ne":[-4.3880634,24.0878856]}},"ai":{"region":"Americas","sub-region":"Latin America and the Caribbean","intermediate-region":"Caribbean","dial_code":"+1264","capital":"The Valley","currency":"Dollar","area-km2":"102","gdp":"175400000","boundingBox":{"sw":[18.0615454,-63.6391992],"ne":[18.7951194,-62.7125449]}},"al":{"region":"Europe","sub-region":"Southern Europe","intermediate-region":"","dial_code":"+355","capital":"Tirana","currency":"Lek","area-km2":"28748","gdp":"12800000000","boundingBox":{"sw":[39.6448625,19.1246095],"ne":[42.6610848,21.0574335]}},"ad":{"region":"Europe","sub-region":"Southern Europe","intermediate-region":"","dial_code":"+376","capital":"Andorra la Vella","currency":"Euro","area-km2":"468","gdp":"4800000000","boundingBox":{"sw":[42.4288238,1.4135781],"ne":[42.6559357,1.7863837]}},"ae":{"region":"Asia","sub-region":"Western Asia","intermediate-region":"","dial_code":"+971","capital":"Abu Dhabi","currency":"Dirham","area-km2":"82880","gdp":"390000000000","boundingBox":{"sw":[22.6444,51.498],"ne":[26.2822,56.3834]}},"ar":{"region":"Americas","sub-region":"Latin America and the Caribbean","intermediate-region":"South America","dial_code":"+54","capital":"Buenos Aires","currency":"Peso","area-km2":"2766890","gdp":"484600000000","boundingBox":{"sw":[-55.1850761,-73.5600329],"ne":[-21.781168,-53.6374515]}},"am":{"region":"Asia","sub-region":"Western Asia","intermediate-region":"","dial_code":"+374","capital":"Yerevan","currency":"Dram","area-km2":"29800","gdp":"10440000000","boundingBox":{"sw":[38.8404775,43.4471395],"ne":[41.300712,46.6333087]}},"as":{"region":"Oceania","sub-region":"Polynesia","intermediate-region":"","dial_code":"+1684","capital":"Pago Pago","currency":"Dollar","area-km2":"199","gdp":"462200000","boundingBox":{"sw":[-14.7608358,-171.2951296],"ne":[-10.8449746,-167.9322899]}},"aq":{"region":"","sub-region":"","intermediate-region":"","dial_code":"+672","capital":"","currency":"","area-km2":"14000000","gdp":"","boundingBox":{"sw":[-85.0511287,-180],"ne":[-60,180]}},"ag":{"region":"Americas","sub-region":"Latin America and the Caribbean","intermediate-region":"Caribbean","dial_code":"+1268","capital":"St. John's","currency":"Dollar","area-km2":"443","gdp":"1220000000","boundingBox":{"sw":[16.7573901,-62.5536517],"ne":[17.929,-61.447857]}},"au":{"region":"Oceania","sub-region":"Australia and New Zealand","intermediate-region":"","dial_code":"+61","capital":"Canberra","currency":"Dollar","area-km2":"7686850","gdp":"1488000000000","boundingBox":{"sw":[-55.3228175,72.2460938],"ne":[-9.0882278,168.2249543]}},"at":{"region":"Europe","sub-region":"Western Europe","intermediate-region":"","dial_code":"+43","capital":"Vienna","currency":"Euro","area-km2":"83858","gdp":"417900000000","boundingBox":{"sw":[46.3722761,9.5307487],"ne":[49.0205305,17.160776]}},"az":{"region":"Asia","sub-region":"Western Asia","intermediate-region":"","dial_code":"+994","capital":"Baku","currency":"Manat","area-km2":"86600","gdp":"76010000000","boundingBox":{"sw":[38.3929551,44.7633701],"ne":[41.9502947,51.0090302]}}}