{"mo":{"region":"Asia","sub-region":"Eastern Asia","intermediate-region":"","dial_code":"+853","capital":"Macao","currency":"Pataca","area-km2":"254","gdp":"51680000000","boundingBox":{"sw":[22.0766667,113.5281666],"ne":[22.2170361,113.6301389]}},"mf":{"region":"Americas","sub-region":"Latin America and the Caribbean","intermediate-region":"Caribbean","dial_code":"+590","capital":"Marigot","currency":"Euro","area-km2":"53","gdp":"561500000","boundingBox":{"sw":[17.8963535,-63.3605643],"ne":[18.1902778,-62.7644063]}},"ma":{"region":"Africa","sub-region":"Northern Africa","intermediate-region":"","dial_code":"+212","capital":"Rabat","currency":"Dirham","area-km2":"446550","gdp":"104800000000","boundingBox":{"sw":[21.3365321,-17.2551456],"ne":[36.0505269,-0.998429]}},"mc":{"region":"Europe","sub-region":"Western Europe","intermediate-region":"","dial_code":"+377","capital":"Monaco","currency":"Euro","area-km2":"2","gdp":"5748000000","boundingBox":{"sw":[43.7247599,7.4090279],"ne":[43.7519311,7.4398704]}},"md":{"region":"Europe","sub-region":"Eastern Europe","intermediate-region":"","dial_code":"+373","capital":"Chisinau","currency":"Leu","area-km2":"33843","gdp":"7932000000","boundingBox":{"sw":[45.4674139,26.6162189],"ne":[48.4918695,30.1636756]}},"mg":{"region":"Africa","sub-region":"Sub-Saharan Africa","intermediate-region":"Eastern Africa","dial_code":"+261","capital":"Antananarivo","currency":"Ariary","area-km2":"587040","gdp":"10530000000","boundingBox":{"sw":[-25.6071002,43.2202072],"ne":[-11.9519693,50.4862553]}},"mv":{"region":"Asia","sub-region":"Southern Asia","intermediate-region":"","dial_code":"+960","capital":"Male","currency":"Rufiyaa","area-km2":"300","gdp":"2270000000","boundingBox":{"sw":[-0.9074935,72.3554187],"ne":[7.3106246,73.9700962]}},"mx":{"region":"Americas","sub-region":"Latin America and the Caribbean","intermediate-region":"Central America","dial_code":"+52","capital":"Mexico City","currency":"Peso","area-km2":"1972550","gdp":"1327000000000","boundingBox":{"sw":[14.3886243,-118.59919],"ne":[32.7186553,-86.493266]}},"mh":{"region":"Oceania","sub-region":"Micronesia","intermediate-region":"","dial_code":"+692","capital":"Majuro","currency":"Dollar","area-km2":"181","gdp":"193000000","boundingBox":{"sw":[-0.5481258,163.4985095],"ne":[14.4518742,178.4985095]}},"mk":{"region":"Europe","sub-region":"Southern Europe","intermediate-region":"","dial_code":"+389","capital":"Skopje","currency":"Denar","area-km2":"25333","gdp":"10650000000","boundingBox":{"sw":[40.8536596,20.4529023],"ne":[42.3735359,23.034051]}},"ml":{"region":"Africa","sub-region":"Sub-Saharan Africa","intermediate-region":"Western Africa","dial_code":"+223","capital":"Bamako","currency":"Franc","area-km2":"1240000","gdp":"11370000000","boundingBox":{"sw":[10.147811,-12.2402835],"ne":[25.001084,4.2673828]}},"mt":{"region":"Europe","sub-region":"Southern Europe","intermediate-region":"","dial_code":"+356","capital":"Valletta","currency":"Euro","area-km2":"316","gdp":"9541000000","boundingBox":{"sw":[35.6029696,13.9324226],"ne":[36.2852706,14.8267966]}},"mm":{"region":"Asia","sub-region":"South-eastern Asia","intermediate-region":"","dial_code":"+95","capital":"Nay Pyi Taw","currency":"Kyat","area-km2":"678500","gdp":"59430000000","boundingBox":{"sw":[9.4399432,92.1719423],"ne":[28.547835,101.1700796]}},"me":{"region":"Europe","sub-region":"Southern Europe","intermediate-region":"","dial_code":"+382","capital":"Podgorica","currency":"Euro","area-km2":"14026","gdp":"4518000000","boundingBox":{"sw":[41.7495999,18.4195781],"ne":[43.5585061,20.3561641]}},"mn":{"region":"Asia","sub-region":"Eastern Asia","intermediate-region":"","dial_code":"+976","capital":"Ulan Bator","currency":"Tugrik","area-km2":"1565000","gdp":"11140000000","boundingBox":{"sw":[41.5800276,87.73762],"ne":[52.1496,119.931949]}},"mp":{"region":"Oceania","sub-region":"Micronesia","intermediate-region":"","dial_code":"+1670","capital":"Saipan","currency":"Dollar","area-km2":"477","gdp":"733000000","boundingBox":{"sw":[14.036565,144.813338],"ne":[20.616556,146.154418]}},"mz":{"region":"Africa","sub-region":"Sub-Saharan Africa","intermediate-region":"Eastern Africa","dial_code":"+258","capital":"Maputo","currency":"Metical","area-km2":"801590","gdp":"14670000000","boundingBox":{"sw":[-26.9209427,30.2138197],"ne":[-10.3252149,41.0545908]}},"mr":{"region":"Africa","sub-region":"Sub-Saharan Africa","intermediate-region":"Western Africa","dial_code":"+222","capital":"Nouakchott","currency":"Ouguiya","area-km2":"1030700","gdp":"4183000000","boundingBox":{"sw":[14.7209909,-17.068081],"ne":[27.314942,-4.8333344]}},"ms":{"region":"Americas","sub-region":"Latin America and the Caribbean","intermediate-region":"Caribbean","dial_code":"+1664","capital":"Plymouth","currency":"Dollar","area-km2":"102","gdp":"","boundingBox":{"sw":[16.475,-62.450667],"ne":[17.0152978,-61.9353818]}},"mu":{"region":"Africa","sub-region":"Sub-Saharan Africa","intermediate-region":"Eastern Africa","dial_code":"+230","capital":"Port Louis","currency":"Rupee","area-km2":"2040","gdp":"11900000000","boundingBox":{"sw":[-20.725,56.3825151],"ne":[-10.138,63.7151319]}},"mw":{"region":"Africa","sub-region":"Sub-Saharan Africa","intermediate-region":"Eastern Africa","dial_code":"+265","capital":"Lilongwe","currency":"Kwacha","area-km2":"118480","gdp":"3683000000","boundingBox":{"sw":[-17.1296031,32.6703616],"ne":[-9.3683261,35.9185731]}},"my":{"region":"Asia","sub-region":"South-eastern Asia","intermediate-region":"","dial_code":"+60","capital":"Kuala Lumpur","currency":"Ringgit","area-km2":"329750","gdp":"312400000000","boundingBox":{"sw":[-5.1076241,105.3471939],"ne":[9.8923759,120.3471939]}}}